GLOBALSTAR M023 [+]     
1 25621U 99004A   24103.68230755 -.00000092  00000+0  68129-4 0  9995
2 25621  52.0102 284.2878 0009550 254.1223 230.8499 12.62449966161355
GLOBALSTAR M040 [-]     
1 25622U 99004B   24103.72957765 -.00000076  00000+0  15764-3 0  9996
2 25622  51.9913 287.6657 0001215 130.4539   0.3105 12.61970796160905
GLOBALSTAR M036 [-]     
1 25623U 99004C   24103.77141851 -.00000053  00000+0  43386-3 0  9999
2 25623  51.9965 294.7693 0010674 307.8008 184.7480 11.86566837127888
GLOBALSTAR M038 [-]     
1 25624U 99004D   24103.55739525 -.00000058  00000+0  30395-3 0  9998
2 25624  51.9963 231.7028 0001629 213.1496 228.9805 12.32496596149231
GLOBALSTAR M041 [-]     
1 25650U 99012B   24103.63250805 -.00000033  00000+0  67000-3 0  9990
2 25650  52.0009 249.6491 0002614 167.4215 192.6687 11.96659888126739
GLOBALSTAR M046 [-]     
1 25651U 99012C   24103.84702949  .00000032  00000+0  13282-2 0  9995
2 25651  52.0083 346.5858 0002876 105.0479  18.4449 12.09388854131594
GLOBALSTAR M037 [+]     
1 25652U 99012D   24103.33419076 -.00000079  00000+0  13821-3 0  9998
2 25652  52.0019  56.1261 0001821 326.1982 198.4319 12.62401159156854
